ISS (ZARYA)             
1 25544U 98067A   26013.20897862  .00008852  00000+0  16699-3 0  9990
2 25544  51.6330 346.6801 0007741  12.6584 347.4598 15.49269250547732
